NORAD_CAT_ID,OBJECT_NAME,OBJECT_TYPE,EPOCH,MEAN_MOTION,ECCENTRICITY,INCLINATION,RA_OF_ASC_NODE,ARG_OF_PERICENTER,MEAN_ANOMALY,BSTAR,MEAN_MOTION_DOT,MEAN_MOTION_DDOT,TLE_LINE0,TLE_LINE1,TLE_LINE2,SEMIMAJOR_AXIS,PERIOD,APOGEE,PERIGEE,DECAYED
53620.0,STARLINK-4615,PAYLOAD,2023-07-19 03:27:01,15.08838724,0.0001207,53.2164,243.9681,83.0842,277.0288,-4.6423e-05,-1.027e-05,0.0,0 STARLINK-4615,1 53620U 22104AJ  23200.14376619 -.00001027  00000-0 -46423-4 0  9994,2 53620  53.2164 243.9681 0001207  83.0842 277.0288 15.08838724 49459,6917.884,95.438,540.584,538.914,0.0
53620.0,STARLINK-4615,PAYLOAD,2023-07-20 09:39:20,15.08840799,0.0001152,53.2164,238.3187,85.4283,274.684,4.2483e-05,3.88e-06,0.0,0 STARLINK-4615,1 53620U 22104AJ  23201.40232262  .00000388  00000-0  42483-4 0  9998,2 53620  53.2164 238.3187 0001152  85.4283 274.6840 15.08840799 49645,6917.878,95.438,540.54,538.946,0.0
53620.0,STARLINK-4615,PAYLOAD,2023-07-21 03:08:35,15.08832311,0.0001126,53.2161,235.0485,81.2337,278.8783,7.1707e-05,8.53e-06,0.0,0 STARLINK-4615,1 53620U 22104AJ  23202.13096879  .00000853  00000-0  71707-4 0  9999,2 53620  53.2161 235.0485 0001126  81.2337 278.8783 15.08832311 49757,6917.904,95.438,540.548,538.99,0.0
53620.0,STARLINK-4615,PAYLOAD,2023-07-24 01:05:33,15.08838492,0.0001257,53.2156,221.9665,75.1415,284.9716,4.8126e-05,4.78e-06,0.0,0 STARLINK-4615,1 53620U 22104AJ  23205.04552863  .00000478  00000-0  48126-4 0  9994,2 53620  53.2156 221.9665 0001257  75.1415 284.9716 15.08838492 50874,6917.885,95.438,540.62,538.88,0.0
53620.0,STARLINK-4615,PAYLOAD,2023-07-25 12:04:02,15.08842313,0.0001186,53.2152,215.4244,82.0456,278.0671,2.2087e-05,6.4e-07,0.0,0 STARLINK-4615,1 53620U 22104AJ  23206.50280614  .00000064  00000-0  22087-4 0  9997,2 53620  53.2152 215.4244 0001186  82.0456 278.0671 15.08842313 51090,6917.873,95.437,540.559,538.918,0.0
53620.0,STARLINK-4615,PAYLOAD,2023-07-26 10:19:26,15.08838569,0.0001256,53.2152,211.2613,81.8528,278.2606,4.6916e-05,4.59e-06,0.0,0 STARLINK-4615,1 53620U 22104AJ  23207.43016853  .00000459  00000-0  46916-4 0  9997,2 53620  53.2152 211.2613 0001256  81.8528 278.2606 15.08838569 51233,6917.885,95.438,540.619,538.881,0.0
53620.0,STARLINK-4615,PAYLOAD,2023-07-27 00:37:54,15.0883926,0.000121,53.2155,208.5849,83.1639,276.9491,3.7297e-05,3.06e-06,0.0,0 STARLINK-4615,1 53620U 22104AJ  23208.02632845  .00000306  00000-0  37297-4 0  9991,2 53620  53.2155 208.5849 0001210  83.1639 276.9491 15.08839260 50644,6917.883,95.438,540.585,538.911,0.0
53620.0,STARLINK-4615,PAYLOAD,2023-07-27 06:59:27,15.08841753,0.0001204,53.2156,207.3952,86.9771,273.1359,5.5154e-05,5.9e-06,0.0,0 STARLINK-4615,1 53620U 22104AJ  23208.29128612  .00000590  00000-0  55154-4 0  9999,2 53620  53.2156 207.3952 0001204  86.9771 273.1359 15.08841753 51360,6917.875,95.437,540.573,538.907,0.0
53620.0,STARLINK-4615,PAYLOAD,2023-07-27 16:31:46,15.0883673,0.0001177,53.2155,205.6112,84.0096,276.1031,9.3045e-06,-1.4e-06,0.0,0 STARLINK-4615,1 53620U 22104AJ  23208.68873086 -.00000140  00000-0  93045-5 0  9998,2 53620  53.2155 205.6112 0001177  84.0096 276.1031 15.08836730 51422,6917.89,95.438,540.57,538.941,0.0
53620.0,STARLINK-4615,PAYLOAD,2023-07-28 00:28:42,15.08830852,0.000123,53.2156,204.1244,85.4766,274.6367,-8.962e-06,-4.3e-06,0.0,0 STARLINK-4615,1 53620U 22104AJ  23209.01993640 -.00000430  00000-0 -89620-5 0  9992,2 53620  53.2156 204.1244 0001230  85.4766 274.6367 15.08830852 50795,6917.908,95.438,540.624,538.922,0.0
53620.0,STARLINK-4615,PAYLOAD,2023-07-28 10:01:01,15.08833773,0.0001236,53.2162,202.3406,88.2531,271.8602,-1.2707e-05,-4.9e-06,0.0,0 STARLINK-4615,1 53620U 22104AJ  23209.41737618 -.00000490  00000-0 -12707-4 0  9994,2 53620  53.2162 202.3406 0001236  88.2531 271.8602 15.08833773 51538,6917.899,95.438,540.619,538.909,0.0
53620.0,STARLINK-4615,PAYLOAD,2023-07-29 08:16:25,15.0883906,0.0001249,53.2164,198.1781,90.255,269.8585,2.1084e-05,4.8e-07,0.0,0 STARLINK-4615,1 53620U 22104AJ  23210.34473442  .00000048  00000-0  21084-4 0  9995,2 53620  53.2164 198.1781 0001249  90.2550 269.8585 15.08839060 50997,6917.883,95.438,540.612,538.884,0.0
53620.0,STARLINK-4615,PAYLOAD,2023-07-31 07:57:59,15.08841068,0.0001306,53.2164,189.2547,86.9792,273.1349,4.7247e-05,4.64e-06,0.0,0 STARLINK-4615,1 53620U 22104AJ  23212.33193652  .00000464  00000-0  47247-4 0  9999,2 53620  53.2164 189.2547 0001306  86.9792 273.1349 15.08841068 51293,6917.877,95.437,540.646,538.839,0.0
53620.0,STARLINK-4615,PAYLOAD,2023-08-01 15:45:42,15.08839319,0.0001314,53.2168,183.3069,92.8036,267.3106,3.9358e-05,3.39e-06,0.0,0 STARLINK-4615,1 53620U 22104AJ  23213.65673663  .00000339  00000-0  39358-4 0  9995,2 53620  53.2168 183.3069 0001314  92.8036 267.3106 15.08839319 51491,6917.882,95.438,540.656,538.838,0.0
53620.0,STARLINK-4615,PAYLOAD,2023-08-03 02:44:11,15.0884701,0.0001495,53.2176,176.7634,99.8874,260.2287,-9.8475e-05,-1.855e-05,0.0,0 STARLINK-4615,1 53620U 22104AJ  23215.11401660 -.00001855  00000-0 -98475-4 0  9995,2 53620  53.2176 176.7634 0001495  99.8874 260.2287 15.08847010 51715,6917.859,95.437,540.758,538.69,0.0
53620.0,STARLINK-4615,PAYLOAD,2023-08-03 07:30:20,15.08828111,0.0001368,53.2177,175.8716,103.3266,256.7879,0.00014323,1.992e-05,0.0,0 STARLINK-4615,1 53620U 22104AJ  23215.31274210  .00001992  00000-0  14323-3 0  9995,2 53620  53.2177 175.8716 0001368 103.3266 256.7879 15.08828111 51743,6917.917,95.438,540.728,538.835,0.0
53620.0,STARLINK-4615,PAYLOAD,2023-08-05 02:25:45,15.08846372,0.000147,53.2166,167.8443,113.8458,246.2688,2.8285e-06,-2.43e-06,0.0,0 STARLINK-4615,1 53620U 22104AJ  23217.10122141 -.00000243  00000-0  28285-5 0  9992,2 53620  53.2166 167.8443 0001470 113.8458 246.2688 15.08846372 52014,6917.861,95.437,540.743,538.709,0.0
53620.0,STARLINK-4615,PAYLOAD,2023-08-06 03:51:55,15.08848628,0.0001093,53.2168,163.0883,94.5077,265.604,0.00013232,1.819e-05,0.0,0 STARLINK-4615,1 53620U 22104AJ  23218.16105580  .00001819  00000-0  13232-3 0  9990,2 53620  53.2168 163.0883 0001093  94.5077 265.6040 15.08848628 52175,6917.854,95.437,540.475,538.963,0.0
53620.0,STARLINK-4615,PAYLOAD,2023-08-06 13:24:14,15.08838015,0.000147,53.2166,161.3037,85.0307,275.0853,4.9365e-05,4.98e-06,0.0,0 STARLINK-4615,1 53620U 22104AJ  23218.55850616  .00000498  00000-0  49365-4 0  9999,2 53620  53.2166 161.3037 0001470  85.0307 275.0853 15.08838015 52238,6917.886,95.438,540.768,538.735,0.0
53620.0,STARLINK-4615,PAYLOAD,2023-08-07 00:31:57,15.08827932,0.0001008,53.2168,159.2227,83.5052,276.6054,-0.00011836,-2.17e-05,0.0,0 STARLINK-4615,1 53620U 22104AJ  23219.02219845 -.00002170  00000-0 -11836-3 0  9997,2 53620  53.2168 159.2227 0001008  83.5052 276.6054 15.08827932 52308,6917.917,95.438,540.48,539.085,0.0
53620.0,STARLINK-4615,PAYLOAD,2023-08-07 05:18:07,15.0883408,0.0001119,53.2174,158.3294,76.8982,283.2135,-6.2728e-05,-1.286e-05,0.0,0 STARLINK-4615,1 53620U 22104AJ  23219.22091468 -.00001286  00000-0 -62728-4 0  9992,2 53620  53.2174 158.3294 0001119  76.8982 283.2135 15.08834080 52338,6917.898,95.438,540.538,538.989,0.0
53620.0,STARLINK-4615,PAYLOAD,2023-08-07 13:15:02,15.08842853,0.0001088,53.217,156.8443,78.1511,281.9604,-2.7127e-06,-3.31e-06,0.0,0 STARLINK-4615,1 53620U 22104AJ  23219.55210754 -.00000331  00000-0 -27127-5 0  9994,2 53620  53.2170 156.8443 0001088  78.1511 281.9604 15.08842853 52389,6917.872,95.437,540.489,538.984,0.0
53620.0,STARLINK-4615,PAYLOAD,2023-08-08 01:58:06,15.08855177,0.0001034,53.2172,154.4647,78.8779,281.233,7.6508e-05,9.31e-06,0.0,0 STARLINK-4615,1 53620U 22104AJ  23220.08201579  .00000931  00000-0  76508-4 0  9999,2 53620  53.2172 154.4647 0001034  78.8779 281.2330 15.08855177 52466,6917.834,95.437,540.414,538.984,0.0
53620.0,STARLINK-4615,PAYLOAD,2023-08-08 19:27:21,15.08835312,0.0001313,53.2168,151.1947,79.3433,280.7707,0.00023468,3.449e-05,0.0,0 STARLINK-4615,1 53620U 22104AJ  23220.81066494  .00003449  00000-0  23468-3 0  9998,2 53620  53.2168 151.1947 0001313  79.3433 280.7707 15.08835312 52574,6917.895,95.438,540.668,538.851,0.0
53620.0,STARLINK-4615,PAYLOAD,2023-08-10 04:50:27,15.08840984,0.000146,53.2147,144.9507,73.9521,286.1632,-9.6893e-05,-1.83e-05,0.0,0 STARLINK-4615,1 53620U 22104AJ  23222.20171031 -.00001830  00000-0 -96893-4 0  9994,2 53620  53.2147 144.9507 0001460  73.9521 286.1632 15.08840984 52785,6917.877,95.437,540.752,538.732,0.0
53620.0,STARLINK-4615,PAYLOAD,2023-08-11 04:41:14,15.08849698,0.0001494,53.2158,140.4887,98.0135,262.1027,-8.5822e-05,-1.654e-05,0.0,0 STARLINK-4615,1 53620U 22104AJ  23223.19530251 -.00001654  00000-0 -85822-4 0  9990,2 53620  53.2158 140.4887 0001494  98.0135 262.1027 15.08849698 52935,6917.851,95.437,540.749,538.682,0.0
53620.0,STARLINK-4615,PAYLOAD,2023-08-11 18:59:46,15.08798426,9.36e-05,53.215,137.8144,88.5988,271.5111,-0.000168,-2.957e-05,0.0,0 STARLINK-4615,1 53620U 22104AJ  23223.79150825 -.00002957  00000-0 -16800-3 0  9997,2 53620  53.2150 137.8144 0000936  88.5988 271.5111 15.08798426 53024,6918.007,95.44,540.52,539.225,0.0
53620.0,STARLINK-4615,PAYLOAD,2023-08-12 02:56:39,15.08833091,8.32e-05,53.2184,136.3278,76.185,283.9235,0.00014381,2.001e-05,0.0,0 STARLINK-4615,1 53620U 22104AJ  23224.12268176  .00002001  00000-0  14381-3 0  9994,2 53620  53.2184 136.3278 0000832  76.1850 283.9235 15.08833091 53076,6917.902,95.438,540.342,539.191,0.0
53620.0,STARLINK-4615,PAYLOAD,2023-08-12 17:15:07,15.08848292,0.000127,53.2173,133.6495,82.8003,277.3134,0.00020844,3.032e-05,0.0,0 STARLINK-4615,1 53620U 22104AJ  23224.71883380  .00003032  00000-0  20844-3 0  9995,2 53620  53.2173 133.6495 0001270  82.8003 277.3134 15.08848292 53160,6917.855,95.437,540.599,538.841,0.0
53620.0,STARLINK-4615,PAYLOAD,2023-08-13 02:47:25,15.08864695,0.0001258,53.2165,131.866,83.6562,276.4573,0.00040329,6.141e-05,0.0,0 STARLINK-4615,1 53620U 22104AJ  23225.11626765  .00006141  00000-0  40329-3 0  9996,2 53620  53.2165 131.8660 0001258  83.6562 276.4573 15.08864695 53229,6917.805,95.436,540.54,538.8,0.0
